ONEWEB-0685             
1 54679U 22166AP  26002.31694008  .00000049  00000+0  86766-4 0  9998
2 54679  87.9225 277.0755 0001873  85.7294 274.4054 13.21836314149500
ONEWEB-0712             
1 54680U 22166AQ  26002.15865327  .00000105  00000+0  24141-3 0  9997
2 54680  87.9045 261.8296 0001858  60.7774 299.3543 13.16593097150213
ONEWEB-0714             
1 54681U 22166AR  26002.17181103  .00000066  00000+0  12917-3 0  9997
2 54681  87.9228 277.0984 0001824  74.4433 285.6903 13.21826218149606
ONEWEB-0532             
1 55140U 23004A   26002.11282613  .00000092  00000+0  20367-3 0  9999
2 55140  87.9102  38.8760 0001906 108.7918 251.3420 13.17649906145717
ONEWEB-0533             
1 55141U 23004B   26002.10791012  .00000336  00000+0  89745-3 0  9993
2 55141  87.8928  23.6484 0001902  90.9393 269.1954 13.12444899146273
ONEWEB-0541             
1 55142U 23004C   26002.16052006 -.00000435  00000+0 -12629-2 0  9991
2 55142  87.8839  54.1062 0001642 102.6297 257.5015 13.11416110144182
ONEWEB-0543             
1 55143U 23004D   26002.29778166 -.00000011  00000+0 -61720-4 0  9996
2 55143  87.9154   8.4318 0001775  79.4604 280.6728 13.18683854147831
ONEWEB-0544             
1 55144U 23004E   26002.29120846 -.00000040  00000+0 -13468-3 0  9990
2 55144  87.9160   8.4248 0001491  85.4200 274.7102 13.18685813147832
